[{"OBJECT_NAME":"CHAMRAN-1","OBJECT_ID":"2024-165B","EPOCH":"2026-03-09T21:50:33.228384","MEAN_MOTION":15.10235792,"ECCENTRICITY":0.0045019,"INCLINATION":64.0789,"RA_OF_ASC_NODE":8.4365,"ARG_OF_PERICENTER":310.8781,"MEAN_ANOMALY":48.8437,"EPHEMERIS_TYPE":0,"CLASSIFICATION_TYPE":"U","NORAD_CAT_ID":61072,"ELEMENT_SET_NO":999,"REV_AT_EPOCH":8166,"BSTAR":0.0004432,"MEAN_MOTION_DOT":7.263e-5,"MEAN_MOTION_DDOT":0},{"OBJECT_NAME":"TOMORROW-S6","OBJECT_ID":"2025-052R","EPOCH":"2026-03-09T16:40:22.799712","MEAN_MOTION":15.21501626,"ECCENTRICITY":0.00068231,"INCLINATION":97.4118,"RA_OF_ASC_NODE":323.125,"ARG_OF_PERICENTER":114.9559,"MEAN_ANOMALY":245.2387,"EPHEMERIS_TYPE":0,"CLASSIFICATION_TYPE":"U","NORAD_CAT_ID":63225,"ELEMENT_SET_NO":999,"REV_AT_EPOCH":5471,"BSTAR":0.00024124683,"MEAN_MOTION_DOT":5.362e-5,"MEAN_MOTION_DDOT":0}]
